H1 CPF 01  gfz 2021 12 29 01  8631 terrasarx 
H2 0702601  6201 31698    2021 12 29 00 59 42 2022 01 03 00 00 42   120 1 1  0 0 0
H9
10 0 59578  16542.000000  0    4446770.893   1019444.050  -5169279.773
10 0 59578  16662.000000  0    3802455.439    654482.343  -5714127.213
10 0 59578  16782.000000  0    3085776.140    290073.590  -6159114.487
10 0 59578  16902.000000  0    2309289.877    -66297.920  -6496555.874
10 0 59578  17022.000000  0    1486688.963   -407527.313  -6720634.666
10 0 59578  17142.000000  0     632561.176   -727026.347  -6827494.309
10 0 59578  17262.000000  0    -237866.577  -1018846.669  -6815297.507
10 0 59578  17382.000000  0   -1108993.342  -1277786.855  -6684253.055
10 0 59578  17502.000000  0   -1965116.895  -1499482.785  -6436613.503
10 0 59578  17622.000000  0   -2790710.854  -1680480.004  -6076640.121
10 0 59578  17742.000000  0   -3570699.816  -1818286.685  -5610536.962
10 0 59578  17862.000000  0   -4290732.684  -1911407.839  -5046356.225
10 0 59578  17982.000000  0   -4937449.381  -1959358.874  -4393870.446
10 0 59578  18102.000000  0   -5498733.806  -1962658.086  -3664414.132
10 0 59578  18222.000000  0   -5963949.775  -1922798.436  -2870696.041
10 0 59578  18342.000000  0   -6324153.308  -1842198.232  -2026583.111
10 0 59578  18462.000000  0   -6572275.995  -1724131.498  -1146860.351
10 0 59578  18582.000000  0   -6703274.468  -1572639.651   -246969.992
10 0 59578  18702.000000  0   -6714241.624  -1392425.980    657264.838
10 0 59578  18822.000000  0   -6604475.509  -1188735.372   1549926.366
10 0 59578  18942.000000  0   -6375503.424   -967222.848   2415291.500
10 0 59578  19062.000000  0   -6031061.028   -733814.219   3238117.640
10 0 59578  19182.000000  0   -5577027.060   -494561.811   4003919.051
10 0 59578  19302.000000  0   -5021313.839   -255499.632   4699227.328
10 0 59578  19422.000000  0   -4373718.882    -22502.112   5311828.754
10 0 59578  19542.000000  0   -3645743.329    198851.422   5830977.093
10 0 59578  19662.000000  0   -2850378.480    403402.677   6247579.059
10 0 59578  19782.000000  0   -2001866.073    586527.697   6554347.838
10 0 59578  19902.000000  0   -1115437.996    744235.797   6745925.057
10 0 59578  20022.000000  0    -207039.767    873253.050   6818967.973
10 0 59578  20142.000000  0     706956.182    971087.934   6772203.339
10 0 59578  20262.000000  0    1610044.365   1036078.868   6606448.171
10 0 59578  20382.000000  0    2485883.233   1067422.795   6324596.436
10 0 59578  20502.000000  0    3318590.499   1065183.875   5931572.341
10 0 59578  20622.000000  0    4093033.608   1030282.466   5434249.353
10 0 59578  20742.000000  0    4795107.625    964464.701   4841335.355
10 0 59578  20862.000000  0    5411998.600    870252.734   4163227.925
10 0 59578  20982.000000  0    5932427.714    750877.236   3411836.276
10 0 59578  21102.000000  0    6346867.498    610193.322   2600372.503
10 0 59578  21222.000000  0    6647724.823    452580.678   1743118.385
10 0 59578  21342.000000  0    6829490.158    282831.376    855170.463
10 0 59578  21462.000000  0    6888844.166    106027.676    -47832.853
10 0 59578  21582.000000  0    6824721.856    -72587.424   -949995.319
10 0 59578  21702.000000  0    6638330.004   -247743.253  -1835451.975
10 0 59578  21822.000000  0    6333118.744   -414274.515  -2688656.203
10 0 59578  21942.000000  0    5914708.636   -567251.496  -3494658.061
10 0 59578  22062.000000  0    5390775.778   -702103.601  -4239369.012
10 0 59578  22182.000000  0    4770897.766   -814732.812  -4909807.004
10 0 59578  22302.000000  0    4066366.641   -901614.557  -5494317.216
10 0 59578  22422.000000  0    3289973.400   -959885.204  -5982766.888
10 0 59578  22542.000000  0    2455767.972   -987413.930  -6366710.793
10 0 59578  22662.000000  0    1578801.125   -982856.202  -6639525.638
10 0 59578  22782.000000  0     674853.406   -945690.119  -6796513.329
10 0 59578  22902.000000  0    -239845.405   -876234.777  -6834973.749
10 0 59578  23022.000000  0   -1148901.699   -775649.483  -6754245.444
10 0 59578  23142.000000  0   -2036044.930   -645914.858  -6555716.272
10 0 59578  23262.000000  0   -2885412.602   -489795.232  -6242801.126
10 0 59578  23382.000000  0   -3681827.077   -310783.733  -5820889.082
10 0 59578  23502.000000  0   -4411064.671   -113030.150  -5297261.751
10 0 59578  23622.000000  0   -5060111.515     98747.289  -4680978.148
10 0 59578  23742.000000  0   -5617400.758    319364.240  -3982730.154
10 0 59578  23862.000000  0   -6073028.876    543286.466  -3214667.559
10 0 59578  23982.000000  0   -6418943.754    764756.668  -2390193.878
10 0 59578  24102.000000  0   -6649099.795    977929.781  -1523735.917
10 0 59578  24222.000000  0   -6759577.081   1177012.996   -630491.626
10 0 59578  24342.000000  0   -6748659.200   1356407.224    273842.494
10 0 59578  24462.000000  0   -6616864.877   1510846.007   1173353.929
10 0 59578  24582.000000  0   -6366937.029   1635529.435   2052201.856
10 0 59578  24702.000000  0   -6003786.781   1726248.844   2894905.481
10 0 59578  24822.000000  0   -5534393.111   1779498.512   3686625.566
10 0 59578  24942.000000  0   -4967660.744   1792571.537   4413431.788
10 0 59578  25062.000000  0   -4314241.792   1763638.058   5062550.124
10 0 59578  25182.000000  0   -3586326.491   1691804.161   5622586.550
10 0 59578  25302.000000  0   -2797408.016   1577150.271   6083724.758
10 0 59578  25422.000000  0   -1962024.480   1420748.645   6437894.785
10 0 59578  25542.000000  0   -1095484.329   1224658.471   6678907.739
10 0 59578  25662.000000  0    -213582.889    991899.769   6802556.576
10 0 59578  25782.000000  0     667685.302    726406.744   6806684.284
10 0 59578  25902.000000  0    1532415.402    432961.056   6691218.989
10 0 59578  26022.000000  0    2365077.916    117106.332   6458175.236
10 0 59578  26142.000000  0    3150797.034   -214955.463   6111622.272
10 0 59578  26262.000000  0    3875618.423   -556484.206   5657617.777
10 0 59578  26382.000000  0    4526760.518   -900336.148   5104107.344
10 0 59578  26502.000000  0    5092845.559  -1239111.007   4460791.830
10 0 59578  26622.000000  0    5564106.416  -1565308.022   3738962.325
10 0 59578  26742.000000  0    5932564.403  -1871488.686   2951304.924
10 0 59578  26862.000000  0    6192173.719  -2150442.326   2111677.743
10 0 59578  26982.000000  0    6338928.138  -2395350.253   1234864.385
10 0 59578  27102.000000  0    6370928.250  -2599944.440    336308.162
10 0 59578  27222.000000  0    6288405.841  -2758656.963   -568168.097
10 0 59578  27342.000000  0    6093705.580  -2866755.700  -1462649.877
10 0 59578  27462.000000  0    5791222.412  -2920463.202  -2331420.208
10 0 59578  27582.000000  0    5387298.657  -2917055.145  -3159242.169
10 0 59578  27702.000000  0    4890084.074  -2854936.487  -3931629.892
10 0 59578  27822.000000  0    4309362.935  -2733694.685  -4635102.389
10 0 59578  27942.000000  0    3656351.656  -2554128.082  -5257416.316
10 0 59578  28062.000000  0    2943472.739  -2318248.808  -5787771.282
10 0 59578  28182.000000  0    2184113.651  -2029261.961  -6216986.492
10 0 59578  28302.000000  0    1392373.602  -1691521.693  -6537650.281
10 0 59578  28422.000000  0     582800.822  -1310463.379  -6744237.571
10 0 59578  28542.000000  0    -229871.779   -892515.668  -6833194.582
10 0 59578  28662.000000  0   -1030989.227   -444993.232  -6802992.668
10 0 59578  28782.000000  0   -1806232.502     24028.348  -6654151.792
10 0 59578  28902.000000  0   -2541868.731    505854.875  -6389231.634
10 0 59578  29022.000000  0   -3224988.733    991329.951  -6012792.119
10 0 59578  29142.000000  0   -3843730.567   1471004.278  -5531324.186
10 0 59578  29262.000000  0   -4387487.183   1935315.123  -4953149.359
10 0 59578  29382.000000  0   -4847093.126   2374774.721  -4288287.567
10 0 59578  29502.000000  0   -5214985.983   2780162.690  -3548293.176
10 0 59578  29622.000000  0   -5485339.475   3142717.856  -2746063.147
10 0 59578  29742.000000  0   -5654166.290   3454327.256  -1895618.330
10 0 59578  29862.000000  0   -5719385.867   3707707.214  -1011859.951
10 0 59578  29982.000000  0   -5680854.713   3896570.742   -110305.902
10 0 59578  30102.000000  0   -5540358.667   4015777.978    793187.392
10 0 59578  30222.000000  0   -5301565.207   4061464.327   1682713.366
10 0 59578  30342.000000  0   -4969936.194   4031142.405   2542604.497
10 0 59578  30462.000000  0   -4552605.580   3923776.613   3357715.984
10 0 59578  30582.000000  0   -4058224.513   3739828.108   4113700.003
10 0 59578  30702.000000  0   -3496777.499   3481267.655   4797262.346
10 0 59578  30822.000000  0   -2879375.413   3151558.650   5396397.629
10 0 59578  30942.000000  0   -2218029.206   2755609.447   5900598.643
10 0 59578  31062.000000  0   -1525410.971   2299696.983   6301036.782
10 0 59578  31182.000000  0    -814606.386   1791362.975   6590710.288
10 0 59578  31302.000000  0     -98866.605   1239286.185   6764558.955
10 0 59578  31422.000000  0     608638.389    653132.440   6819547.803
10 0 59578  31542.000000  0    1295061.498     43385.208   6754716.210
10 0 59578  31662.000000  0    1948110.536   -578841.017   6571193.994
10 0 59578  31782.000000  0    2556267.755  -1202002.847   6272183.599
10 0 59578  31902.000000  0    3108993.777  -1814341.154   5862908.514
10 0 59578  32022.000000  0    3596913.367  -2404103.354   5350527.653
10 0 59578  32142.000000  0    4011978.378  -2959769.763   4744015.760
10 0 59578  32262.000000  0    4347605.520  -3470281.047   4054012.075
10 0 59578  32382.000000  0    4598786.216  -3925262.143   3292637.669
10 0 59578  32502.000000  0    4762166.345  -4315237.362   2473283.957
10 0 59578  32622.000000  0    4836093.012  -4631830.916   1610374.697
10 0 59578  32742.000000  0    4820626.114  -4867948.089    719107.379
10 0 59578  32862.000000  0    4717515.051  -5017933.308   -184821.232
10 0 59578  32982.000000  0    4530141.120  -5077699.803  -1085499.574
99
